<?xml version="1.0" encoding="UTF-8"?>
<ndm xmlns:xsi="http://www.w3.org/2001/XMLSchema-instance" xsi:noNamespaceSchemaLocation="https://sanaregistry.org/r/ndmxml/ndmxml-1.0-master.xsd">
<omm id="CCSDS_OMM_VERS" version="2.0">
<header><CREATION_DATE/><ORIGINATOR/></header><body><segment><metadata><OBJECT_NAME>CATSAT-1</OBJECT_NAME><OBJECT_ID>1998-067PZ</OBJECT_ID><CENTER_NAME>EARTH</CENTER_NAME><REF_FRAME>TEME</REF_FRAME><TIME_SYSTEM>UTC</TIME_SYSTEM><MEAN_ELEMENT_THEORY>SGP4</MEAN_ELEMENT_THEORY></metadata><data><meanElements><EPOCH>2020-12-15T01:38:28.992768</EPOCH><MEAN_MOTION>15.76004858</MEAN_MOTION><ECCENTRICITY>.0001911</ECCENTRICITY><INCLINATION>51.6389</INCLINATION><RA_OF_ASC_NODE>115.3884</RA_OF_ASC_NODE><ARG_OF_PERICENTER>22.7688</ARG_OF_PERICENTER><MEAN_ANOMALY>337.3396</MEAN_ANOMALY></meanElements><tleParameters><EPHEMERIS_TYPE>0</EPHEMERIS_TYPE><CLASSIFICATION_TYPE>U</CLASSIFICATION_TYPE><NORAD_CAT_ID>44033</NORAD_CAT_ID><ELEMENT_SET_NO>999</ELEMENT_SET_NO><REV_AT_EPOCH>10679</REV_AT_EPOCH><BSTAR>.35943E-3</BSTAR><MEAN_MOTION_DOT>.5681E-3</MEAN_MOTION_DOT><MEAN_MOTION_DDOT>0</MEAN_MOTION_DDOT></tleParameters></data></segment></body></omm>
<omm id="CCSDS_OMM_VERS" version="2.0">
<header><CREATION_DATE/><ORIGINATOR/></header><body><segment><metadata><OBJECT_NAME>ISS DEB</OBJECT_NAME><OBJECT_ID>1998-067QA</OBJECT_ID><CENTER_NAME>EARTH</CENTER_NAME><REF_FRAME>TEME</REF_FRAME><TIME_SYSTEM>UTC</TIME_SYSTEM><MEAN_ELEMENT_THEORY>SGP4</MEAN_ELEMENT_THEORY></metadata><data><meanElements><EPOCH>2020-12-14T18:55:40.132416</EPOCH><MEAN_MOTION>15.56373426</MEAN_MOTION><ECCENTRICITY>.0004715</ECCENTRICITY><INCLINATION>51.6382</INCLINATION><RA_OF_ASC_NODE>158.6591</RA_OF_ASC_NODE><ARG_OF_PERICENTER>275.2361</ARG_OF_PERICENTER><MEAN_ANOMALY>84.8092</MEAN_ANOMALY></meanElements><tleParameters><EPHEMERIS_TYPE>0</EPHEMERIS_TYPE><CLASSIFICATION_TYPE>U</CLASSIFICATION_TYPE><NORAD_CAT_ID>44303</NORAD_CAT_ID><ELEMENT_SET_NO>999</ELEMENT_SET_NO><REV_AT_EPOCH>8782</REV_AT_EPOCH><BSTAR>.10931E-3</BSTAR><MEAN_MOTION_DOT>.7374E-4</MEAN_MOTION_DOT><MEAN_MOTION_DDOT>0</MEAN_MOTION_DDOT></tleParameters></data></segment></body></omm>
<omm id="CCSDS_OMM_VERS" version="2.0">
<header><CREATION_DATE/><ORIGINATOR/></header><body><segment><metadata><OBJECT_NAME>ISS DEB</OBJECT_NAME><OBJECT_ID>1998-067QB</OBJECT_ID><CENTER_NAME>EARTH</CENTER_NAME><REF_FRAME>TEME</REF_FRAME><TIME_SYSTEM>UTC</TIME_SYSTEM><MEAN_ELEMENT_THEORY>SGP4</MEAN_ELEMENT_THEORY></metadata><data><meanElements><EPOCH>2020-12-14T13:59:08.852640</EPOCH><MEAN_MOTION>15.74699330</MEAN_MOTION><ECCENTRICITY>.0005316</ECCENTRICITY><INCLINATION>51.6338</INCLINATION><RA_OF_ASC_NODE>136.1961</RA_OF_ASC_NODE><ARG_OF_PERICENTER>271.5802</ARG_OF_PERICENTER><MEAN_ANOMALY>88.4588</MEAN_ANOMALY></meanElements><tleParameters><EPHEMERIS_TYPE>0</EPHEMERIS_TYPE><CLASSIFICATION_TYPE>U</CLASSIFICATION_TYPE><NORAD_CAT_ID>44304</NORAD_CAT_ID><ELEMENT_SET_NO>999</ELEMENT_SET_NO><REV_AT_EPOCH>8811</REV_AT_EPOCH><BSTAR>.49906E-3</BSTAR><MEAN_MOTION_DOT>.7493E-3</MEAN_MOTION_DOT><MEAN_MOTION_DDOT>0</MEAN_MOTION_DDOT></tleParameters></data></segment></body></omm>
<omm id="CCSDS_OMM_VERS" version="2.0">
<header><CREATION_DATE/><ORIGINATOR/></header><body><segment><metadata><OBJECT_NAME>ISS DEB</OBJECT_NAME><OBJECT_ID>1998-067QC</OBJECT_ID><CENTER_NAME>EARTH</CENTER_NAME><REF_FRAME>TEME</REF_FRAME><TIME_SYSTEM>UTC</TIME_SYSTEM><MEAN_ELEMENT_THEORY>SGP4</MEAN_ELEMENT_THEORY></metadata><data><meanElements><EPOCH>2020-12-14T13:30:36.811584</EPOCH><MEAN_MOTION>15.86741255</MEAN_MOTION><ECCENTRICITY>.000633</ECCENTRICITY><INCLINATION>51.6249</INCLINATION><RA_OF_ASC_NODE>126.0172</RA_OF_ASC_NODE><ARG_OF_PERICENTER>310.1970</ARG_OF_PERICENTER><MEAN_ANOMALY>49.8480</MEAN_ANOMALY></meanElements><tleParameters><EPHEMERIS_TYPE>0</EPHEMERIS_TYPE><CLASSIFICATION_TYPE>U</CLASSIFICATION_TYPE><NORAD_CAT_ID>44305</NORAD_CAT_ID><ELEMENT_SET_NO>999</ELEMENT_SET_NO><REV_AT_EPOCH>8824</REV_AT_EPOCH><BSTAR>.72732E-3</BSTAR><MEAN_MOTION_DOT>.193792E-2</MEAN_MOTION_DOT><MEAN_MOTION_DDOT>0</MEAN_MOTION_DDOT></tleParameters></data></segment></body></omm>
<omm id="CCSDS_OMM_VERS" version="2.0">
<header><CREATION_DATE/><ORIGINATOR/></header><body><segment><metadata><OBJECT_NAME>ISS DEB</OBJECT_NAME><OBJECT_ID>1998-067QD</OBJECT_ID><CENTER_NAME>EARTH</CENTER_NAME><REF_FRAME>TEME</REF_FRAME><TIME_SYSTEM>UTC</TIME_SYSTEM><MEAN_ELEMENT_THEORY>SGP4</MEAN_ELEMENT_THEORY></metadata><data><meanElements><EPOCH>2020-12-14T05:14:48.660000</EPOCH><MEAN_MOTION>15.56587461</MEAN_MOTION><ECCENTRICITY>.0005902</ECCENTRICITY><INCLINATION>51.6368</INCLINATION><RA_OF_ASC_NODE>161.5237</RA_OF_ASC_NODE><ARG_OF_PERICENTER>269.4883</ARG_OF_PERICENTER><MEAN_ANOMALY>90.5432</MEAN_ANOMALY></meanElements><tleParameters><EPHEMERIS_TYPE>0</EPHEMERIS_TYPE><CLASSIFICATION_TYPE>U</CLASSIFICATION_TYPE><NORAD_CAT_ID>44306</NORAD_CAT_ID><ELEMENT_SET_NO>999</ELEMENT_SET_NO><REV_AT_EPOCH>8774</REV_AT_EPOCH><BSTAR>.12702E-3</BSTAR><MEAN_MOTION_DOT>.8724E-4</MEAN_MOTION_DOT><MEAN_MOTION_DDOT>0</MEAN_MOTION_DDOT></tleParameters></data></segment></body></omm>
<omm id="CCSDS_OMM_VERS" version="2.0">
<header><CREATION_DATE/><ORIGINATOR/></header><body><segment><metadata><OBJECT_NAME>RAAVANA-1</OBJECT_NAME><OBJECT_ID>1998-067QE</OBJECT_ID><CENTER_NAME>EARTH</CENTER_NAME><REF_FRAME>TEME</REF_FRAME><TIME_SYSTEM>UTC</TIME_SYSTEM><MEAN_ELEMENT_THEORY>SGP4</MEAN_ELEMENT_THEORY></metadata><data><meanElements><EPOCH>2020-12-13T18:11:55.908672</EPOCH><MEAN_MOTION>15.63570481</MEAN_MOTION><ECCENTRICITY>.0004694</ECCENTRICITY><INCLINATION>51.6355</INCLINATION><RA_OF_ASC_NODE>152.4670</RA_OF_ASC_NODE><ARG_OF_PERICENTER>303.1751</ARG_OF_PERICENTER><MEAN_ANOMALY>56.8793</MEAN_ANOMALY></meanElements><tleParameters><EPHEMERIS_TYPE>0</EPHEMERIS_TYPE><CLASSIFICATION_TYPE>U</CLASSIFICATION_TYPE><NORAD_CAT_ID>44329</NORAD_CAT_ID><ELEMENT_SET_NO>999</ELEMENT_SET_NO><REV_AT_EPOCH>8499</REV_AT_EPOCH><BSTAR>.30163E-3</BSTAR><MEAN_MOTION_DOT>.28123E-3</MEAN_MOTION_DOT><MEAN_MOTION_DDOT>0</MEAN_MOTION_DDOT></tleParameters></data></segment></body></omm>
<omm id="CCSDS_OMM_VERS" version="2.0">
<header><CREATION_DATE/><ORIGINATOR/></header><body><segment><metadata><OBJECT_NAME>UGUISU</OBJECT_NAME><OBJECT_ID>1998-067QF</OBJECT_ID><CENTER_NAME>EARTH</CENTER_NAME><REF_FRAME>TEME</REF_FRAME><TIME_SYSTEM>UTC</TIME_SYSTEM><MEAN_ELEMENT_THEORY>SGP4</MEAN_ELEMENT_THEORY></metadata><data><meanElements><EPOCH>2020-12-14T17:48:57.748320</EPOCH><MEAN_MOTION>15.63453077</MEAN_MOTION><ECCENTRICITY>.0004758</ECCENTRICITY><INCLINATION>51.6333</INCLINATION><RA_OF_ASC_NODE>147.7412</RA_OF_ASC_NODE><ARG_OF_PERICENTER>307.4600</ARG_OF_PERICENTER><MEAN_ANOMALY>52.5962</MEAN_ANOMALY></meanElements><tleParameters><EPHEMERIS_TYPE>0</EPHEMERIS_TYPE><CLASSIFICATION_TYPE>U</CLASSIFICATION_TYPE><NORAD_CAT_ID>44330</NORAD_CAT_ID><ELEMENT_SET_NO>999</ELEMENT_SET_NO><REV_AT_EPOCH>8512</REV_AT_EPOCH><BSTAR>.26933E-3</BSTAR><MEAN_MOTION_DOT>.24927E-3</MEAN_MOTION_DOT><MEAN_MOTION_DDOT>0</MEAN_MOTION_DDOT></tleParameters></data></segment></body></omm>
<omm id="CCSDS_OMM_VERS" version="2.0">
<header><CREATION_DATE/><ORIGINATOR/></header><body><segment><metadata><OBJECT_NAME>NEPALISAT-1</OBJECT_NAME><OBJECT_ID>1998-067QG</OBJECT_ID><CENTER_NAME>EARTH</CENTER_NAME><REF_FRAME>TEME</REF_FRAME><TIME_SYSTEM>UTC</TIME_SYSTEM><MEAN_ELEMENT_THEORY>SGP4</MEAN_ELEMENT_THEORY></metadata><data><meanElements><EPOCH>2020-12-14T16:59:34.434816</EPOCH><MEAN_MOTION>15.63614296</MEAN_MOTION><ECCENTRICITY>.0004704</ECCENTRICITY><INCLINATION>51.6337</INCLINATION><RA_OF_ASC_NODE>147.5137</RA_OF_ASC_NODE><ARG_OF_PERICENTER>310.8202</ARG_OF_PERICENTER><MEAN_ANOMALY>49.2384</MEAN_ANOMALY></meanElements><tleParameters><EPHEMERIS_TYPE>0</EPHEMERIS_TYPE><CLASSIFICATION_TYPE>U</CLASSIFICATION_TYPE><NORAD_CAT_ID>44331</NORAD_CAT_ID><ELEMENT_SET_NO>999</ELEMENT_SET_NO><REV_AT_EPOCH>8513</REV_AT_EPOCH><BSTAR>.27123E-3</BSTAR><MEAN_MOTION_DOT>.25269E-3</MEAN_MOTION_DOT><MEAN_MOTION_DDOT>0</MEAN_MOTION_DDOT></tleParameters></data></segment></body></omm>

</ndm>
