CATSAT-1                
1 44033U 98067PZ  20350.06839112  .00056810  00000-0  35943-3 0  9991
2 44033  51.6389 115.3884 0001911  22.7688 337.3396 15.76004858106794
ISS DEB                 
1 44303U 98067QA  20349.78865894  .00007374  00000-0  10931-3 0  9995
2 44303  51.6382 158.6591 0004715 275.2361  84.8092 15.56373426 87827
ISS DEB                 
1 44304U 98067QB  20349.58274135  .00074930  00000-0  49906-3 0  9992
2 44304  51.6338 136.1961 0005316 271.5802  88.4588 15.74699330 88116
ISS DEB                 
1 44305U 98067QC  20349.56292606  .00193792  00000-0  72732-3 0  9995
2 44305  51.6249 126.0172 0006330 310.1970  49.8480 15.86741255 88246
ISS DEB                 
1 44306U 98067QD  20349.21861875  .00008724  00000-0  12702-3 0  9999
2 44306  51.6368 161.5237 0005902 269.4883  90.5432 15.56587461 87746
RAAVANA-1               
1 44329U 98067QE  20348.75828598  .00028123  00000-0  30163-3 0  9993
2 44329  51.6355 152.4670 0004694 303.1751  56.8793 15.63570481 84995
UGUISU                  
1 44330U 98067QF  20349.74233505  .00024927  00000-0  26933-3 0  9991
2 44330  51.6333 147.7412 0004758 307.4600  52.5962 15.63453077 85123
NEPALISAT-1             
1 44331U 98067QG  20349.70803744  .00025269  00000-0  27123-3 0  9998
2 44331  51.6337 147.5137 0004704 310.8202  49.2384 15.63614296 85131
